KKS-1 (KISEKI)          
1 33499U 09002H   26157.52938435  .00001562  00000+0  19856-3 0  9994
2 33499  98.1193  79.8029 0007208 335.3773  24.7095 14.83096820934615
SWISSCUBE               
1 35932U 09051B   26156.46919883  .00001141  00000+0  23506-3 0  9990
2 35932  98.4043  64.1532 0005430 246.3597 113.7034 14.62458715887444
BEESAT-1                
1 35933U 09051C   26157.49935830  .00000984  00000+0  20750-3 0  9997
2 35933  98.3972  64.8591 0003907 259.6670 100.4090 14.61703523887627
ITUPSAT1                
1 35935U 09051E   26155.69953963  .00000958  00000+0  20796-3 0  9997
2 35935  98.4056  62.2366 0006134 280.9538  79.0971 14.60421767886916
XIWANG-1 (HOPE-1)       
1 36122U 09072B   26157.60400503  .00000312  00000+0  93303-3 0  9997
2 36122 100.4028 111.6059 0006782 258.3821 101.6530 13.16440334791615
O/OREOS (USA 219)       
1 37224U 10062C   26156.87810413  .00002979  00000+0  28689-3 0  9991
2 37224  71.9702 105.9546 0012370  87.8701 272.3886 14.93695134114951
JUGNU                   
1 37839U 11058B   26157.30783240  .00000452  00000+0  96537-4 0  9997
2 37839  19.9622  14.5210 0018503 316.3264 216.4094 14.13773989757485
SRMSAT                  
1 37841U 11058D   26157.27188351  .00000385  00000+0  65061-4 0  9991
2 37841  19.9704 125.5359 0011947  84.3565  18.6414 14.11573396756279
STRAND-1                
1 39090U 13009E   26157.47347652  .00000310  00000+0  11849-3 0  9992
2 39090  98.3920 337.9718 0007399 262.0579  97.9768 14.37156962695528
ZACUBE-1 (TSHEPISOSAT)  
1 39417U 13066B   26157.14228711  .00005332  00000+0  41430-3 0  9994
2 39417  97.8103 119.4196 0039944 286.6860  72.9981 15.01117522679070
GOMX-1                  
1 39430U 13066Q   26157.49512722  .00002095  00000+0  31827-3 0  9997
2 39430  97.6489 358.6317 0130116 111.5398 249.9736 14.69418430668344
CUBEBUG-2 (LO-74)       
1 39440U 13066AA  26156.80918561  .00005560  00000+0  51354-3 0  9990
2 39440  97.8908 105.7402 0059434  65.9901 294.7524 14.93668030675299
FUNCUBE-1 (AO-73)       
1 39444U 13066AE  26157.18462751  .00009267  00000+0  57636-3 0  9998
2 39444  97.8278 128.4023 0034656 239.5624 120.2179 15.09358417678008
UWE-3                   
1 39446U 13066AG  26157.38723772  .00005411  00000+0  46489-3 0  9996
2 39446  97.8694 113.3898 0049054 357.6101   2.4878 14.96939694675961
UNISAT-6                
1 40012U 14033C   26157.17385267  .00004570  00000+0  49180-3 0  9998
2 40012  97.7873 310.0813 0046460 104.5608 256.0768 14.88186398644521
DUCHIFAT-1              
1 40021U 14033M   26157.14150127  .00131825  00000+0  14668-2 0  9996
2 40021  98.0474 214.7704 0004492 136.7008 223.4602 15.62418709654029
QB50P1                  
1 40025U 14033R   26157.27496853  .00010939  00000+0  53962-3 0  9996
2 40025  98.0970 167.6573 0007005 259.7165 100.3278 15.18093440651376
LILACSAT-2              
1 40908U 15049K   26157.04825478  .00022779  00000+0  39229-3 0  9993
2 40908  97.4656 193.4688 0005322 299.3702  60.7018 15.51071560594026
FOX-1A (AO-85)          
1 40967U 15058D   26157.48628590  .00003560  00000+0  32134-3 0  9997
2 40967  64.7764 312.2377 0129885  60.7834 300.6195 14.90916336111973
CAS-2T & KS-1Q          
1 41847U 16066G   26157.50497052  .00002047  00000+0  29425-3 0  9993
2 41847  98.3816 233.3631 0342402 161.8018 199.5790 14.44659219503252
RADFXSAT (FOX-1B)       
1 43017U 17073E   26157.16080816  .00013577  00000+0  59080-3 0  9991
2 43017  97.4715  24.6017 0151244   7.4674 352.8759 15.12530755463720
DIWATA-2B               
1 43678U 18084H   26157.56634269  .00002378  00000+0  19422-3 0  9991
2 43678  98.1161 353.3142 0011956 205.2682 154.7957 15.00400151414626
ES'HAIL 2               
1 43700U 18090A   26157.56645863  .00000158  00000+0  00000+0 0  9998
2 43700   0.0157  17.2220 0001950  93.2655  14.2182  1.00273434 27571
FOX-1CLIFF (AO-95)      
1 43770U 18099N   26157.13129568  .00016192  00000+0  62215-3 0  9991
2 43770  97.4387 217.4205 0009175  36.3927 323.7934 15.26474352411538
ITASAT                  
1 43786U 18099AE  26157.41576984  .00009708  00000+0  46694-3 0  9995
2 43786  97.4030 209.1436 0013263  37.0880 323.1269 15.18921656411274
JY1SAT (JO-97)          
1 43803U 18099AX  26157.13319170  .00023609  00000+0  73456-3 0  9998
2 43803  97.4134 219.9330 0004154 316.9785  43.1132 15.33299760411935
UWE-4                   
1 43880U 18111E   26157.59884957  .00041427  00000+0  86289-3 0  9994
2 43880  97.5857  85.5068 0007550  22.5436 337.6143 15.45454015409146
TIANYAN 01              
1 44881U 19093C   26157.61123463  .00000846  00000+0  10149-3 0  9999
2 44881  97.7529 230.1007 0014788 118.4712 241.7995 14.86500931349843
RS-44 & BREEZE-KM R/B   
1 44909U 19096E   26157.52885762  .00000013  00000+0  24962-5 0  9996
2 44909  82.5218 346.7890 0217707 169.0311 191.5651 12.79748573300987
SALSAT                  
1 46495U 20068K   26157.28697036  .00010659  00000+0  37345-3 0  9991
2 46495  97.8852 159.6892 0009191 351.5700   8.5383 15.29640191313697
XW-3 (CAS-9)            
1 50466U 21131B   26157.57227808  .00000569  00000+0  18947-3 0  9990
2 50466  98.4977 250.0197 0005151 120.8958 239.2738 14.41347939233586
GREENCUBE (IO-117)      
1 53109U 22080E   26152.46502029 -.00000003  00000+0  00000+0 0  9996
2 53109  70.1435 303.7143 0008869 293.3663  66.6064  6.42583280 91055
UMKA 1 (RS40S)          
1 57172U 23091G   26157.56611786  .00008168  00000+0  37380-3 0  9994
2 57172  97.5051 216.3050 0013687 151.1060 209.0936 15.20695735162390
CUBESX-HSE 3 (RS42S)    
1 57178U 23091N   26157.58628045  .00017704  00000+0  59271-3 0  9997
2 57178  97.5091 223.0416 0012059 127.3114 232.9227 15.30945052162803
MONITOR-3 (RS58S)       
1 57180U 23091Q   26157.58756752  .00014621  00000+0  54236-3 0  9998
2 57180  97.5082 220.9574 0012951 133.6220 226.6096 15.27626498162671
MONITOR-4 (RS57S)       
1 57182U 23091S   26157.56724372  .00013347  00000+0  49400-3 0  9992
2 57182  97.5077 220.9075 0012932 133.9860 226.2448 15.27722292162671
MONITOR-2 (RS39S)       
1 57184U 23091U   26157.57412898  .00006622  00000+0  32084-3 0  9990
2 57184  97.5073 215.9262 0012240 143.8298 216.3766 15.18811055162341
SVYATOBOR 1 (RS60S)     
1 57187U 23091X   26157.57130279  .00011679  00000+0  45017-3 0  9991
2 57187  97.5089 221.3309 0010826 126.2860 233.9380 15.26433812162697
VIZARD-METEO (RS38S)    
1 57189U 23091Z   26157.59295931  .00021632  00000+0  62395-3 0  9990
2 57189  97.5090 226.8686 0008739 109.2602 250.9588 15.35686943163060
POLYTECH-UNIVERSE 3 (R*)
1 57191U 23091AB  26157.60272822  .00006005  00000+0  28920-3 0  9992
2 57191  97.5048 215.4593 0016146 161.0236 199.1603 15.19011229162340
UTMN 2 (RS27S)          
1 57203U 23091AP  26157.60968500  .00016770  00000+0  54762-3 0  9994
2 57203  97.5086 224.6863 0009458 115.1737 245.0486 15.31789251162927
KUZGTU 1 (RS47S)        
1 57217U 23091AV  26157.56808489  .00015447  00000+0  53924-3 0  9992
2 57217  97.5063 221.9418 0012281 130.6657 229.5653 15.29615473162759
SONATE-2                
1 59112U 24043Q   26157.41458687  .00050553  00000+0  67485-3 0  9995
2 59112  97.5530 307.1574 0006572 232.7926 127.2730 15.57911026126218
MESAT1                  
1 60209U 24125G   26157.54013097  .00064455  00000+0  73307-3 0  9997
2 60209  97.2305  14.7874 0008619 246.6799 113.3553 15.62057076107900
OOV-CUBE (TUBSAT-30)    
1 60240U 24128F   26157.54215999  .00003011  00000+0  23491-3 0  9990
2 60240  61.9952 262.6903 0045968 131.3951 229.1106 15.02727006104511
COLIBRI-S (RS67S)       
1 61746U 24199M   26157.58650432  .00027811  00000+0  54568-3 0  9992
2 61746  97.3005  31.3469 0006881 328.7162  31.3678 15.47284035135778
HORS 3 (RS81S)          
1 61753U 24199U   26157.59763031  .00045340  00000+0  69366-3 0  9990
2 61753  97.2989  33.2325 0004643 338.3216  21.7841 15.54239328135913
HORS 4 (RS82S)          
1 61754U 24199V   26157.58931228  .00054786  00000+0  71020-3 0  9999
2 61754  97.2936  34.3587 0003367 328.7687  31.3369 15.58694625135994
ARCTICSAT 1 (RS74S)     
1 61762U 24199AD  26156.04331285  .00706680  23827-3  12270-2 0  9999
2 61762  97.2851  39.2907 0006187 198.3612 161.7446 16.02262718136170
SIT-2086                
1 61764U 24199AF  26157.49854099  .00046369  00000+0  75946-3 0  9999
2 61764  97.2945  33.6452 0004699 311.0744  49.0103 15.52340478132779
HYPERVIEW 1G (RS66S)    
1 61772U 24199AP  26156.93973474  .00157165  00000+0  11405-2 0  9991
2 61772  97.2887  36.1139 0002080 306.6952  53.4120 15.72925574132907
ALTAIR (RS65S)          
1 61779U 24199AW  26157.56463482  .00014997  00000+0  41778-3 0  9993
2 61779  97.3039  26.9864 0012238 352.9135   7.1934 15.36811498135483
ASRTU-1 (AO-123)        
1 61781U 24199AY  26157.60854368  .00009859  00000+0  28703-3 0  9992
2 61781  97.3011  26.3750 0013439 354.6199   5.4899 15.35523058132307
SAMSAT-IONOSPHERE (RS7*)
1 61784U 24199BB  26157.58476366  .00053491  00000+0  74660-3 0  9994
2 61784  97.2958  33.2288 0006446 330.8893  29.2002 15.56698372135914
RTU MIREA 1 (RS51S)     
1 61785U 24199BC  26157.50364513  .00070591  00000+0  87120-3 0  9992
2 61785  97.2947  33.9243 0005960 325.9643  34.1231 15.59920866132802
TEVEL2-4                
1 63213U 25052D   26156.96547016  .00026125  00000+0  78941-3 0  9994
2 63213  97.3920  53.3411 0004284 125.1509 235.0135 15.34208415 68393
TEVEL2-5                
1 63214U 25052E   26157.44133364  .00024190  00000+0  73469-3 0  9996
2 63214  97.3910  53.7683 0004295 125.4892 234.6752 15.34062158 68468
TEVEL2-6                
1 63215U 25052F   26157.45341113  .00024595  00000+0  74779-3 0  9995
2 63215  97.3913  53.7648 0004376 125.1583 235.0071 15.34024635 68464
TEVEL2-1                
1 63217U 25052H   26156.43470878  .00016797  00000+0  52119-3 0  9994
2 63217  97.3883  52.3839 0004005 136.2880 223.8680 15.33457579 68299
